OBJECT_NAME,OBJECT_ID,EPOCH,MEAN_MOTION,ECCENTRICITY,INCLINATION,RA_OF_ASC_NODE,ARG_OF_PERICENTER,MEAN_ANOMALY,EPHEMERIS_TYPE,CLASSIFICATION_TYPE,NORAD_CAT_ID,ELEMENT_SET_NO,REV_AT_EPOCH,BSTAR,MEAN_MOTION_DOT,MEAN_MOTION_DDOT
STARLINK-32220,2024-138R,2026-07-02T13:33:27.533664,15.30194179,.0001216,53.1606,136.1519,90.9684,269.1457,0,U,60370,999,10821,.22889E-4,.319E-5,0
STARLINK-32263,2024-138S,2026-07-02T14:09:46.076832,15.30178804,.0001343,53.1588,135.6007,85.5598,274.5556,0,U,60371,999,10812,.57571E-4,.1345E-4,0
STARLINK-32268,2024-138T,2026-07-02T13:54:43.888032,15.30197356,.000148,53.1604,136.2470,84.1783,275.9387,0,U,60372,999,10821,-.25588E-4,-.1117E-4,0
STARLINK-32223,2024-138U,2026-07-02T14:05:37.815072,15.31699542,.0001461,53.1602,135.5870,79.6560,280.4606,0,U,60373,999,10812,-.38407E-5,-.484E-5,0
STARLINK-32180,2024-138V,2026-07-02T13:45:27.925632,15.31699569,.0001456,53.1595,135.4932,79.5032,280.6133,0,U,60374,999,10822,-.44943E-5,-.505E-5,0
STARLINK-32281,2024-138W,2026-07-02T13:45:12.411648,15.34397465,.0001346,53.1612,135.4993,88.9107,271.2050,0,U,60375,999,10812,.39682E-4,.964E-5,0
STARLINK-32277,2024-138X,2026-07-02T13:38:00.856608,15.30189675,.0001207,53.1594,136.1711,83.9848,276.1290,0,U,60376,999,10821,.13193E-3,.3549E-4,0
STARLINK-32269,2024-138Y,2026-07-02T20:34:55.055424,15.31695929,.0001629,53.1608,134.4235,93.5334,266.5854,0,U,60377,999,10826,-.14221E-4,-.807E-5,0
QIANFAN-1,2024-140A,2026-07-02T19:28:18.434208,13.51017995,.0016769,88.9739,278.3099,358.8362,1.2747,0,U,60379,999,9463,.20322E-3,.143E-5,0
QIANFAN-2,2024-140B,2026-07-02T18:23:10.454208,13.51013690,.0011065,88.9726,278.1264,331.8084,28.2467,0,U,60380,999,9468,.21373E-3,.15E-5,0
QIANFAN-3,2024-140C,2026-07-02T18:34:59.448288,13.51014783,.0012611,88.9718,278.2429,345.0137,15.0638,0,U,60381,999,9459,.22301E-3,.156E-5,0
QIANFAN-4,2024-140D,2026-07-02T19:46:00.729984,13.51017634,.0011369,88.9743,278.1863,334.4145,25.6442,0,U,60382,999,9472,.22899E-3,.16E-5,0
QIANFAN-5,2024-140E,2026-07-02T19:10:30.206208,13.51016203,.0014315,88.9717,278.2651,356.0729,4.0308,0,U,60383,999,9458,.19146E-3,.136E-5,0
QIANFAN-6,2024-140F,2026-07-02T19:40:05.651040,13.51016688,.0011702,88.9745,278.0639,340.9588,19.1125,0,U,60384,999,9478,.21643E-3,.152E-5,0
QIANFAN-7,2024-140G,2026-07-02T19:08:04.839936,14.27854820,.0017711,88.9775,269.9404,96.7289,263.5922,0,U,60385,999,9922,.26119E-3,.661E-5,0
QIANFAN-8,2024-140H,2026-07-02T19:51:58.565952,13.51013066,.0015203,88.9746,278.3031,341.2943,18.7648,0,U,60386,999,9463,.2071E-3,.146E-5,0
QIANFAN-9,2024-140J,2026-07-02T19:16:21.938016,13.51018606,.0014878,88.9744,278.3770,341.2728,18.7874,0,U,60387,999,9461,.20423E-3,.144E-5,0
QIANFAN-10,2024-140K,2026-07-02T19:22:18.306048,13.51019681,.0012671,88.9755,277.7447,316.5713,43.4439,0,U,60388,999,9474,.20957E-3,.147E-5,0
QIANFAN-11,2024-140L,2026-07-02T18:28:58.933056,13.51013797,.0012937,88.9680,278.1838,342.1720,17.8976,0,U,60389,999,9439,.22426E-3,.157E-5,0
QIANFAN-12,2024-140M,2026-07-02T18:58:43.925088,13.51015948,.0012068,88.9723,278.3130,351.8476,8.2477,0,U,60390,999,9452,.19246E-3,.136E-5,0
QIANFAN-13,2024-140N,2026-07-02T18:17:11.996160,13.51015950,.0012006,88.9735,278.4404,354.9531,5.1497,0,U,60391,999,9454,.2017E-3,.142E-5,0
QIANFAN-14,2024-140P,2026-07-02T18:52:46.555680,13.51009510,.0015632,88.9714,278.2927,352.3475,7.7435,0,U,60392,999,9455,.19449E-3,.138E-5,0
QIANFAN-15,2024-140Q,2026-07-02T19:04:31.679040,13.51010099,.0010977,88.9738,278.2964,340.1876,19.8848,0,U,60393,999,9454,.19422E-3,.137E-5,0
QIANFAN-16,2024-140R,2026-07-02T18:46:54.850656,13.51017972,.0013767,88.9740,278.4235,357.6633,2.4452,0,U,60394,999,9445,.21887E-3,.153E-5,0
QIANFAN-17,2024-140S,2026-07-02T18:40:51.187872,13.51014071,.00139,88.9751,278.4920,350.7646,9.3247,0,U,60395,999,9541,.19189E-3,.136E-5,0
QIANFAN-18,2024-140T,2026-07-02T19:57:49.588416,13.51013463,.0012611,88.9745,278.0065,332.0319,28.0153,0,U,60396,999,9481,.19837E-3,.14E-5,0
STARLINK-11228 [DTC],2024-141A,2026-07-02T10:16:11.004096,15.69692905,.0001136,53.1594,240.6626,98.3964,261.7182,0,U,60398,999,10971,-.32712E-5,-.984E-5,0
STARLINK-11182 [DTC],2024-141B,2026-07-02T12:58:22.535040,15.69681133,.0001261,53.1591,239.9313,93.7749,266.3413,0,U,60399,999,10978,-.22365E-4,-.3294E-4,0
STARLINK-11234 [DTC],2024-141C,2026-07-02T12:51:17.961120,15.69695616,.0001292,53.1598,239.8971,98.6737,261.4427,0,U,60400,999,10973,-.11793E-4,-.2016E-4,0
STARLINK-11232 [DTC],2024-141D,2026-07-02T20:22:39.050112,15.69702267,.0001617,53.1582,238.2986,83.6887,276.4315,0,U,60401,999,10983,.22839E-6,-.562E-5,0
STARLINK-11139 [DTC],2024-141E,2026-07-02T11:05:29.124096,15.69670908,.0000957,53.1587,240.1540,107.1309,252.9814,0,U,60402,999,10977,.39393E-4,.4179E-4,0
STARLINK-11158 [DTC],2024-141F,2026-07-02T14:01:55.900128,15.69698992,.0001016,53.1588,240.2230,105.5500,254.5630,0,U,60403,999,10973,-.21225E-5,-.845E-5,0
STARLINK-11199 [DTC],2024-141G,2026-07-02T10:51:30.271680,15.69695690,.0000903,53.1589,240.8200,107.2781,252.8336,0,U,60404,999,10976,-.13216E-4,-.2188E-4,0
STARLINK-11081 [DTC],2024-141H,2026-07-02T13:47:48.602112,15.69693468,.0001089,53.1589,240.1560,79.8094,280.3046,0,U,60405,999,10973,-.26517E-5,-.909E-5,0
STARLINK-11150 [DTC],2024-141J,2026-07-02T13:40:44.925024,15.69691494,.0001502,53.1595,240.1242,79.6201,280.4986,0,U,60406,999,10978,-.55905E-5,-.1266E-4,0
STARLINK-11136 [DTC],2024-141K,2026-07-02T15:05:21.282720,15.69695039,.0001002,53.1562,239.7785,90.4271,269.6862,0,U,60407,999,10974,-.15761E-4,-.2496E-4,0
STARLINK-11196 [DTC],2024-141L,2026-07-02T13:26:36.820032,15.69696500,.0001284,53.1587,240.0585,131.4744,228.6384,0,U,60408,999,10978,-.14163E-4,-.2303E-4,0
STARLINK-11174 [DTC],2024-141M,2026-07-02T13:12:29.030400,15.69700027,.0001012,53.1581,239.9914,86.6575,273.4558,0,U,60409,999,10973,-.12586E-4,-.2112E-4,0
STARLINK-11191 [DTC],2024-141N,2026-07-02T10:02:03.711264,15.69694686,.0001203,53.1590,240.5882,56.9852,303.1281,0,U,60410,999,10976,-.11371E-4,-.1965E-4,0
STARLINK-32244,2024-141P,2026-07-02T16:29:20.573088,15.31701087,.0001122,53.1600,67.9819,80.8272,279.2857,0,U,60411,999,10719,-.37323E-4,-.1523E-4,0
STARLINK-32186,2024-141Q,2026-07-02T16:30:07.615296,15.34370589,.000136,53.1617,66.5724,89.9246,270.1913,0,U,60412,999,10715,.6878E-4,.1946E-4,0
STARLINK-32178,2024-141R,2026-07-02T16:17:59.919072,15.34386697,.0001406,53.1607,66.5164,91.6629,268.4534,0,U,60413,999,10715,-.45578E-4,-.1915E-4,0
STARLINK-32234,2024-141S,2026-07-02T16:15:54.090432,15.31685423,.0001448,53.1591,67.9226,97.0767,263.0400,0,U,60414,999,10719,-.88289E-4,-.3103E-4,0
STARLINK-32265,2024-141T,2026-07-02T16:27:05.236992,15.34381244,.0001418,53.1601,66.5582,88.1681,271.9484,0,U,60415,999,10721,-.44225E-4,-.1869E-4,0
STARLINK-32197,2024-141U,2026-07-02T16:19:13.725408,15.31660869,.0001689,53.1621,57.9794,104.4357,255.6832,0,U,60416,999,10727,.19924E-3,.5815E-4,0
STARLINK-32255,2024-141V,2026-07-02T20:11:03.252768,15.34375877,.0000962,53.1591,66.1033,89.8951,270.2161,0,U,60417,999,10723,-.66893E-4,-.2634E-4,0
STARLINK-32236,2024-141W,2026-07-02T20:14:04.602048,15.34385018,.0001109,53.1607,66.1163,105.3871,254.7254,0,U,60418,999,10723,-.26054E-4,-.1256E-4,0
CAPELLA-13 (ACADIA-3),2024-142A,2026-07-01T17:52:28.658496,14.87653682,.00014211,53.0045,354.0224,93.6265,266.4877,0,U,60419,999,10257,.61744963E-3,.544E-4,0
ASBM-1,2024-143A,2026-06-26T19:16:26.848992,1.50429047,.56125806,62.8646,45.1001,269.3270,29.5737,0,U,60422,999,1176,0,-.142E-5,0
ASBM-2,2024-143B,2026-07-01T18:56:43.683072,1.50423767,.5617301,62.8582,44.9742,269.5081,29.4266,0,U,60423,999,1182,0,-.98E-6,0
STARLINK-32250,2024-144A,2026-07-02T19:45:48.544128,15.34356226,.0000983,53.1614,41.8603,70.7703,289.3406,0,U,60425,999,10604,-.1236E-3,-.4544E-4,0
STARLINK-32226,2024-144B,2026-07-02T19:54:51.912000,15.34388192,.0000878,53.1616,41.8950,48.5841,311.5236,0,U,60426,999,10694,-.10377E-3,-.3879E-4,0
STARLINK-32254,2024-144C,2026-07-02T19:42:44.895744,15.34384802,.0001399,53.1615,41.8444,88.5401,271.5762,0,U,60427,999,10698,-.99564E-4,-.3737E-4,0
STARLINK-32193,2024-144D,2026-07-02T20:03:58.150944,15.34347252,.0000843,53.1597,41.9337,66.2762,293.8329,0,U,60428,999,10698,-.2847E-3,-.9966E-4,0
STARLINK-32242,2024-144E,2026-07-02T20:34:15.992256,15.34367892,.0001509,53.1602,42.0645,83.5362,276.5813,0,U,60429,999,10698,-.70657E-4,-.276E-4,0
STARLINK-32196,2024-144F,2026-07-02T19:39:01.758240,15.34380407,.0000785,53.1590,40.4074,80.8392,279.2699,0,U,60430,999,10696,-.10188E-4,-.72E-5,0
STARLINK-32232,2024-144G,2026-07-02T20:13:02.031168,15.34386109,.0001251,53.1619,41.9770,88.7831,271.3315,0,U,60431,999,10694,-.6122E-5,-.583E-5,0
STARLINK-32246,2024-144H,2026-07-02T19:51:49.779072,15.34385921,.0001144,53.1621,41.8814,91.4485,268.6649,0,U,60432,999,10694,-.48173E-4,-.2003E-4,0
STARLINK-32183,2024-144J,2026-07-02T20:00:55.717344,15.34378248,.0001004,53.1626,41.9183,76.3058,283.8056,0,U,60433,999,10694,-.82115E-4,-.3147E-4,0
STARLINK-32233,2024-144K,2026-07-02T19:45:05.060736,15.34386235,.0000917,53.1605,40.4336,67.9708,292.1392,0,U,60434,999,10696,-.8807E-5,-.673E-5,0
STARLINK-32222,2024-144L,2026-07-02T21:00:42.348096,15.34381714,.000148,53.1607,40.0517,79.5532,280.5638,0,U,60435,999,10697,-.22712E-4,-.1143E-4,0
STARLINK-32229,2024-144M,2026-07-02T20:51:37.209888,15.34378348,.0000521,53.1616,40.0105,86.6697,273.4365,0,U,60436,999,10697,-.63945E-4,-.2534E-4,0
STARLINK-32241,2024-144N,2026-07-02T15:12:46.967616,15.34397681,.0000789,53.1611,41.3841,94.9538,265.1555,0,U,60437,999,10693,-.1443E-3,-.5248E-4,0
STARLINK-32240,2024-144P,2026-07-02T20:48:35.826912,15.34383331,.0001611,53.1594,39.9984,86.1148,274.0038,0,U,60438,999,10701,-.91768E-4,-.3474E-4,0
STARLINK-32231,2024-144Q,2026-07-02T19:42:03.131712,15.34382684,.0000825,53.1565,40.4141,48.4837,311.6236,0,U,60439,999,10606,-.86475E-4,-.3295E-4,0
